{
  "type": "FeatureCollection",
  "generator": "overpass-ide",
  "copyright": "The data included in this document is from www.openstreetmap.org. The data is made available under ODbL.",
  "timestamp": "2022-09-17T17:12:22Z",
  "features": [
    {
      "type": "Feature",
      "properties": {
        "@id": "node/26432122",
        "capital": "4",
        "is_in:country": "Poland",
        "multi_postcode_place": "yes",
        "name": "Gdańsk",
        "name:af": "Gdansk",
        "name:ar": "غدانسك",
        "name:ast": "Gdansk",
        "name:azb": "گدانسک",
        "name:be": "Гданьск",
        "name:ckb": "گدانسک",
        "name:cs": "Gdaňsk",
        "name:csb": "Gduńsk",
        "name:de": "Danzig",
        "name:el": "Γκντανσκ",
        "name:en": "Gdansk",
        "name:eo": "Gdansko",
        "name:fa": "گدانسک",
        "name:he": "גדנסק",
        "name:hu": "Gdańsk",
        "name:it": "Danzica",
        "name:ja": "グダニスク",
        "name:la": "Gedanum",
        "name:lt": "Gdanskas",
        "name:lv": "Gdaņska",
        "name:mk": "Гдањск",
        "name:nds": "Danzig",
        "name:pl": "Gdańsk",
        "name:pnb": "گدانسک",
        "name:pt": "Danzigue",
        "name:ru": "Гданьск",
        "name:sk": "Gdaňsk",
        "name:sl": "Gdansk",
        "name:uk": "Гданськ",
        "name:ur": "گدانسک",
        "name:zh": "格但斯克",
        "name:zh-Hans": "格但斯克",
        "name:zh-Hant": "格但斯克",
        "old_name:la": "Dantiscum",
        "old_name:nl": "Dantzig;Danswijk",
        "place": "city",
        "population": "461935",
        "source:population": "http://stat.gov.pl/obszary-tematyczne/ludnosc/ludnosc/powierzchnia-i-ludnosc-w-przekroju-terytorialnym-w-2014-r-,7,11.html",
        "teryt:rm": "96",
        "teryt:simc": "0933016",
        "teryt:stan_na": "2009-01-01",
        "teryt:terc": "2261011",
        "teryt:updated_by": "teryt2osm combine.py v. 49",
        "wikidata": "Q1792",
        "wikipedia": "pl:Gdańsk"
      },
      "geometry": {
        "type": "Point",
        "coordinates": [
          18.6540231,
          54.3482908
        ]
      },
      "id": "node/26432122"
    },
    {
      "type": "Feature",
      "properties": {
        "@id": "node/26553042",
        "capital": "4",
        "ele": "1",
        "is_in:country": "Poland",
        "multi_postcode_place": "yes",
        "name": "Szczecin",
        "name:ar": "شتتين",
        "name:az": "Şetsin",
        "name:be": "Шчэцін",
        "name:bg": "Шчечин",
        "name:cs": "Štětín",
        "name:da": "Stettin",
        "name:de": "Stettin",
        "name:el": "Στσέτσιν",
        "name:eo": "Ŝĉecino",
        "name:fa": "شچچین",
        "name:fo": "Stettin",
        "name:he": "שצ'צ'ין",
        "name:hsb": "Šćećin",
        "name:it": "Stettino",
        "name:ja": "シュチェチン",
        "name:ka": "შჩეცინი",
        "name:kn": "ಶ್ಚೆಟ್ಸಿನ್",
        "name:ko": "슈체친",
        "name:la": "Stettinum",
        "name:lt": "Ščecinas",
        "name:lv": "Ščecina",
        "name:mk": "Шчеќин",
        "name:nds": "Stettin",
        "name:pt": "Estetino",
        "name:ru": "Щецин",
        "name:sk": "Štetín",
        "name:szl": "Sztetin",
        "name:uk": "Щецин",
        "old_name:fr": "Stettin",
        "place": "city",
        "population": "402465",
        "postal_code": "70-018",
        "source:population": "http://stat.gov.pl/obszary-tematyczne/ludnosc/ludnosc/powierzchnia-i-ludnosc-w-przekroju-terytorialnym-w-2014-r-,7,11.html",
        "teryt:rm": "96",
        "teryt:simc": "0977976",
        "teryt:stan_na": "2009-01-01",
        "teryt:terc": "3262011",
        "teryt:updated_by": "teryt2osm combine.py v. 49",
        "wikidata": "Q393",
        "wikipedia": "pl:Szczecin"
      },
      "geometry": {
        "type": "Point",
        "coordinates": [
          14.5509623,
          53.4301818
        ]
      },
      "id": "node/26553042"
    },
    {
      "type": "Feature",
      "properties": {
        "@id": "node/27161819",
        "alt_name:la": "Poznania",
        "capital": "4",
        "int_name": "Poznan",
        "is_in:country": "Poland",
        "multi_postcode_place": "yes",
        "name": "Poznań",
        "name:ar": "بوزنان",
        "name:be": "Познань",
        "name:cs": "Poznaň",
        "name:de": "Posen",
        "name:eo": "Poznano",
        "name:fa": "پوزنان",
        "name:he": "פוזנן",
        "name:hu": "Poznań",
        "name:ja": "ポズナン",
        "name:la": "Posnania",
        "name:lt": "Poznanė",
        "name:lv": "Poznaņa",
        "name:mk": "Познањ",
        "name:pl": "Poznań",
        "name:pt": "Posnânia",
        "name:ru": "Познань",
        "name:sk": "Poznaň",
        "name:szl": "Poznanie",
        "name:uk": "Познань",
        "name:yi": "פּױזן",
        "name:zh-Hans": "波茲南",
        "name:zh-Hant": "波茲南",
        "old_name": "Posen",
        "place": "city",
        "population": "548028",
        "postal_code": "60-001",
        "source:population": "http://stat.gov.pl/obszary-tematyczne/ludnosc/ludnosc/powierzchnia-i-ludnosc-w-przekroju-terytorialnym-w-2014-r-,7,11.html",
        "teryt:rm": "96",
        "teryt:simc": "0969400",
        "teryt:stan_na": "2009-01-01",
        "teryt:terc": "3064011",
        "teryt:updated_by": "teryt2osm combine.py v. 49",
        "website": "https://www.poznan.pl/",
        "wikidata": "Q268",
        "wikipedia": "pl:Poznań"
      },
      "geometry": {
        "type": "Point",
        "coordinates": [
          16.9335199,
          52.4082663
        ]
      },
      "id": "node/27161819"
    },
    {
      "type": "Feature",
      "properties": {
        "@id": "node/30014556",
        "capital": "4",
        "is_in:country": "Poland",
        "multi_postcode_place": "yes",
        "name": "Lublin",
        "name:be": "Люблін",
        "name:el": "Λούμπλιν",
        "name:en": "Lublin",
        "name:fa": "لوبلین",
        "name:he": "לובלין",
        "name:ja": "ルブリン",
        "name:lt": "Liublinas",
        "name:mk": "Лублин",
        "name:pl": "Lublin",
        "name:ru": "Люблин",
        "name:uk": "Люблін",
        "place": "city",
        "population": "340466",
        "source:population": "http://stat.gov.pl/obszary-tematyczne/ludnosc/ludnosc/powierzchnia-i-ludnosc-w-przekroju-terytorialnym-w-2017-r-,7,14.html",
        "teryt:rm": "96",
        "teryt:simc": "0954700",
        "teryt:stan_na": "2009-01-01",
        "teryt:terc": "0663011",
        "teryt:updated_by": "teryt2osm combine.py v. 49",
        "wikidata": "Q37333",
        "wikipedia": "pl:Lublin"
      },
      "geometry": {
        "type": "Point",
        "coordinates": [
          22.5701022,
          51.250559
        ]
      },
      "id": "node/30014556"
    },
    {
      "type": "Feature",
      "properties": {
        "@id": "node/31337673",
        "capital": "4",
        "is_in:country": "Poland",
        "multi_postcode_place": "yes",
        "name": "Bydgoszcz",
        "name:ar": "بيدغوز",
        "name:be": "Быдгошч",
        "name:cs": "Bydhošť",
        "name:de": "Bromberg",
        "name:eo": "Bidgoŝto",
        "name:he": "בידגושץ",
        "name:ja": "ブィドゴシュチュ",
        "name:ko": "비드고슈치",
        "name:la": "Bidgostia",
        "name:lt": "Bydgoščius",
        "name:lv": "Bidgošča",
        "name:mk": "Бидгошч",
        "name:pl": "Bydgoszcz",
        "name:ru": "Быдгощ",
        "name:sr": "Бидгошч",
        "name:szl": "Bydgoszcz",
        "name:uk": "Бидгощ",
        "name:zh": "比得哥什",
        "name:zh-Hans": "比得哥什",
        "name:zh-Hant": "比得哥什",
        "old_name": "Bromberg",
        "place": "city",
        "population": "339053",
        "population:date": "2021-12-31",
        "source:population": "Główny Urząd Statystyczny",
        "teryt:rm": "96",
        "teryt:simc": "0928363",
        "teryt:stan_na": "2009-01-01",
        "teryt:terc": "0461011",
        "teryt:updated_by": "teryt2osm combine.py v. 49",
        "wikidata": "Q41252",
        "wikipedia": "pl:Bydgoszcz"
      },
      "geometry": {
        "type": "Point",
        "coordinates": [
          18.0002529,
          53.1219648
        ]
      },
      "id": "node/31337673"
    },
    {
      "type": "Feature",
      "properties": {
        "@id": "node/31901874",
        "capital": "4",
        "multi_postcode_place": "yes",
        "name": "Katowice",
        "name:am": "ካቶቪጸ",
        "name:ar": "كاتوفيتسه",
        "name:be": "Катавіцы",
        "name:bg": "Катовице",
        "name:crh": "Katovitse",
        "name:cs": "Katovice",
        "name:cv": "Катовица",
        "name:de": "Kattowitz",
        "name:dv": "ކެޓޮވިސް",
        "name:el": "Κατοβίτσε",
        "name:fa": "کاتوویتس",
        "name:he": "קטוביץ",
        "name:hy": "Կատովիցե",
        "name:ja": "カトヴィツェ",
        "name:ka": "კატოვიცე",
        "name:kk": "Катовице",
        "name:kn": "ಕತೋವೀಸ್ಸ",
        "name:ko": "카토비체",
        "name:ku": "Katovîts",
        "name:ky": "Катовице",
        "name:la": "Katovicum",
        "name:lt": "Katovicai",
        "name:lv": "Katovice",
        "name:mdf": "Катовице",
        "name:mk": "Катовице",
        "name:mr": "कातोवित्सा",
        "name:nap": "Katovice",
        "name:ne": "क्याटोभिस",
        "name:os": "Катовице",
        "name:pl": "Katowice",
        "name:pnb": "کاتووچ",
        "name:rmy": "Katovice",
        "name:ru": "Катовице",
        "name:sk": "Katovice",
        "name:sl": "Katovice",
        "name:sr": "Катовице",
        "name:szl": "Katowice",
        "name:th": "คาโตวีตเซ",
        "name:tt": "Katovitse",
        "name:udm": "Катовице",
        "name:uk": "Катовіце",
        "name:vep": "Katovice",
        "name:yi": "קאטאוויץ",
        "name:zh": "卡托维兹",
        "name:zh-Hans": "卡托维兹",
        "name:zh-Hant": "卡托維茲",
        "old_name:pl": "Stalinogród",
        "old_name:pl:1953-03-09--1956-12-10": "Stalinogród",
        "place": "city",
        "population": "304362",
        "source:population": "http://www.stat.gov.pl/download/gfx/portalinformacyjny/pl/defaultaktualnosci/5468/6/12/1/lu_ludnosc_stan_struktura_31-12-2013.pdf",
        "teryt:rm": "96",
        "teryt:simc": "0937474",
        "teryt:stan_na": "2009-01-01",
        "teryt:terc": "2469011",
        "teryt:updated_by": "teryt2osm combine.py v. 49",
        "wikidata": "Q588",
        "wikipedia": "pl:Katowice"
      },
      "geometry": {
        "type": "Point",
        "coordinates": [
          19.0215852,
          50.2598987
        ]
      },
      "id": "node/31901874"
    },
    {
      "type": "Feature",
      "properties": {
        "@id": "node/34662230",
        "alt_name:uk": "Же́шув",
        "is_in:country": "Poland",
        "multi_postcode_place": "yes",
        "name": "Rzeszów",
        "name:be": "Жэшаў",
        "name:cs": "Řešov",
        "name:de": "Resche",
        "name:ja": "ジェシュフ",
        "name:la": "Resovia",
        "name:lt": "Žešuvas",
        "name:mk": "Жешув",
        "name:pl": "Rzeszów",
        "name:ru": "Жешув",
        "name:szl": "Rzeszůw",
        "name:uk": "Ряшів",
        "name:yi": "רײַשע",
        "place": "city",
        "population": "197863",
        "source:population": "wikipedia",
        "teryt:rm": "96",
        "teryt:simc": "0974133",
        "teryt:stan_na": "2009-01-01",
        "teryt:terc": "1863011",
        "teryt:updated_by": "teryt2osm combine.py v. 49",
        "wikidata": "Q598",
        "wikipedia": "pl:Rzeszów"
      },
      "geometry": {
        "type": "Point",
        "coordinates": [
          22.0047174,
          50.0374531
        ]
      },
      "id": "node/34662230"
    },
    {
      "type": "Feature",
      "properties": {
        "@id": "node/60038888",
        "capital": "4",
        "is_in:country": "Poland",
        "multi_postcode_place": "yes",
        "name": "Białystok",
        "name:ba": "Белосток",
        "name:be": "Беласток",
        "name:de": "Bialystok",
        "name:en": "Białystok",
        "name:eo": "Bjalistoko",
        "name:es": "Białystok",
        "name:fr": "Białystok",
        "name:he": "ביאליסטוק",
        "name:ja": "ビャウィストク",
        "name:lt": "Balstogė",
        "name:lv": "Bjalistoka",
        "name:mk": "Бјалисток",
        "name:pl": "Białystok",
        "name:ru": "Белосток",
        "name:szl": "Biołystok",
        "name:uk": "Білосток",
        "name:zh": "比亚韦斯托克",
        "name:zh-Hans": "比亚韦斯托克",
        "name:zh-Hant": "比亚韦斯托克",
        "place": "city",
        "population": "296401",
        "population:date": "2021-06-30",
        "source:population": "https://stat.gov.pl/obszary-tematyczne/ludnosc/ludnosc/ludnosc-stan-i-struktura-ludnosci-oraz-ruch-naturalny-w-przekroju-terytorialnym-stan-w-dniu-30-06-2021,6,30.html",
        "teryt:rm": "96",
        "teryt:simc": "0922410",
        "teryt:stan_na": "2009-01-01",
        "teryt:terc": "2061011",
        "website": "https://www.bialystok.pl/",
        "wikidata": "Q761",
        "wikipedia": "pl:Białystok"
      },
      "geometry": {
        "type": "Point",
        "coordinates": [
          23.1591679,
          53.132398
        ]
      },
      "id": "node/60038888"
    },
    {
      "type": "Feature",
      "properties": {
        "@id": "node/418392093",
        "capital": "4",
        "multi_postcode_place": "yes",
        "name": "Wrocław",
        "name:ar": "فروتزواف",
        "name:ast": "Wroclaw",
        "name:be": "Уроцлаў",
        "name:bg": "Вроцлав",
        "name:cs": "Vratislav",
        "name:dative": "Wrocławiu",
        "name:de": "Breslau",
        "name:en": "Wrocław",
        "name:eo": "Vroclavo",
        "name:es": "Breslavia",
        "name:fr": "Wroclaw",
        "name:he": "ורוצלב",
        "name:hsb": "Wrócław",
        "name:hu": "Boroszló",
        "name:it": "Breslavia",
        "name:ja": "ヴロツワフ",
        "name:la": "Vratislavia",
        "name:lt": "Vroclavas",
        "name:lv": "Vroclava",
        "name:mk": "Вроцлав",
        "name:pl": "Wrocław",
        "name:pt": "Breslávia",
        "name:ru": "Вроцлав",
        "name:sk": "Vroclav",
        "name:sr": "Вроцлав",
        "name:szl": "Wrŏcłōw",
        "name:uk": "Вроцлав",
        "name:yi": "ברעסלוי",
        "name:zh": "弗罗茨瓦夫",
        "name:zh-Hans": "弗罗茨瓦夫",
        "name:zh-Hant": "弗次瓦夫",
        "place": "city",
        "population": "634487",
        "postal_code": "50-001",
        "source:population": "http://demografia.stat.gov.pl/bazademografia/Tables.aspx.",
        "teryt:simc": "0986283",
        "teryt:terc": "0264011",
        "wikidata": "Q1799",
        "wikipedia": "pl:Wrocław"
      },
      "geometry": {
        "type": "Point",
        "coordinates": [
          17.0326689,
          51.1089776
        ]
      },
      "id": "node/418392093"
    },
    {
      "type": "Feature",
      "properties": {
        "@id": "node/428339515",
        "admin_level": "2",
        "alt_name": "m.st. Warszawa",
        "capital": "yes",
        "ele": "100",
        "multi_postcode_place": "yes",
        "name": "Warszawa",
        "name:ab": "Варшава",
        "name:ace": "Warsawa",
        "name:af": "Warskou",
        "name:ak": "Warsaw",
        "name:am": "ዋርሶው",
        "name:an": "Varsovia",
        "name:ang": "Warsaw",
        "name:ar": "وارسو",
        "name:arc": "ܘܐܪܣܘ",
        "name:arz": "وارسو",
        "name:ast": "Varsovia",
        "name:az": "Varşava",
        "name:ba": "Варшава",
        "name:bat-smg": "Varšova",
        "name:be": "Варшава",
        "name:be-tarask": "Варшава",
        "name:bg": "Варшава",
        "name:bi": "Warsaw",
        "name:bn": "ওয়ার্সা",
        "name:bo": "ཝར་སོ།",
        "name:br": "Varsovia",
        "name:bs": "Varšava",
        "name:ca": "Varsòvia",
        "name:ckb": "وارساو",
        "name:crh": "Varşava",
        "name:cs": "Varšava",
        "name:csb": "Warszawa",
        "name:cu": "Варшава",
        "name:cv": "Варшава",
        "name:cy": "Warsaw",
        "name:da": "Warszawa",
        "name:de": "Warschau",
        "name:diq": "Warşowa",
        "name:dsb": "Waršawa",
        "name:ee": "Warsaw",
        "name:el": "Βαρσοβία",
        "name:en": "Warsaw",
        "name:eo": "Varsovio",
        "name:es": "Varsovia",
        "name:et": "Varssavi",
        "name:eu": "Varsovia",
        "name:fa": "ورشو",
        "name:fi": "Varsova",
        "name:fiu-vro": "Varssavi",
        "name:fo": "Warszawa",
        "name:fr": "Varsovie",
        "name:frp": "Varsovie",
        "name:fy": "Warsjau",
        "name:ga": "Vársá",
        "name:gag": "Varşava",
        "name:gd": "Warsaw",
        "name:gl": "Varsovia",
        "name:gv": "Warszawa",
        "name:he": "ורשה",
        "name:hi": "वारसॉ",
        "name:hif": "Warsaw",
        "name:hr": "Varšava",
        "name:hsb": "Waršawa",
        "name:ht": "Vasovi",
        "name:hu": "Varsó",
        "name:hy": "Վարշավա",
        "name:ia": "Varsovia",
        "name:id": "Warsawa",
        "name:ie": "Warszawa",
        "name:io": "Warszawa",
        "name:is": "Varsjá",
        "name:it": "Varsavia",
        "name:ja": "ワルシャワ",
        "name:jbo": "varcavas",
        "name:jv": "Warsawa",
        "name:ka": "ვარშავა",
        "name:kk": "Варшава",
        "name:kl": "Warszawa",
        "name:kn": "ವಾರ್ಸಾ",
        "name:ko": "바르샤바",
        "name:krc": "Варшава",
        "name:ku": "Warşova",
        "name:kv": "Варшава",
        "name:kw": "Warszawa",
        "name:ky": "Варшава",
        "name:la": "Varsovia",
        "name:lb": "Warschau",
        "name:lij": "Varsavvia",
        "name:lmo": "Varsavia",
        "name:ln": "Warsaw",
        "name:lt": "Varšuva",
        "name:lv": "Varšava",
        "name:mg": "Varsôvia",
        "name:mi": "Pakangakite",
        "name:mk": "Варшава",
        "name:ml": "വാഴ്സ",
        "name:mn": "Варшав",
        "name:mr": "वर्झावा",
        "name:mrj": "Варшава",
        "name:ms": "Warsaw",
        "name:mt": "Varsavja",
        "name:my": "ဝါဆောမြို့",
        "name:na": "Warsaw",
        "name:nah": "Varsovia",
        "name:nan": "Warszawa",
        "name:nap": "Varsavia",
        "name:nds": "Warschau",
        "name:nl": "Warschau",
        "name:nn": "Warszawa",
        "name:no": "Warszawa",
        "name:nov": "Varsava",
        "name:oc": "Varsòvia",
        "name:os": "Варшавæ",
        "name:pa": "ਵਾਰਸਾ",
        "name:pap": "Varsovia",
        "name:pdc": "Woarschau",
        "name:pih": "Worsaaw",
        "name:pl": "Warszawa",
        "name:pms": "Varsavia",
        "name:pnb": "وارسا",
        "name:pt": "Varsóvia",
        "name:qu": "Warszawa",
        "name:rm": "Varsovia",
        "name:ro": "Varșovia",
        "name:roa-rup": "Varshava",
        "name:ru": "Варшава",
        "name:sah": "Варшава",
        "name:sc": "Varsavia",
        "name:scn": "Varsavia",
        "name:sco": "Warsaw",
        "name:sh": "Varšava",
        "name:sk": "Varšava",
        "name:sl": "Varšava",
        "name:sq": "Varshava",
        "name:sr": "Варшава",
        "name:st": "Warsaw",
        "name:sv": "Warszawa",
        "name:sw": "Warshawa",
        "name:szl": "Warszawa",
        "name:ta": "வார்சா",
        "name:tet": "Varsóvia",
        "name:tg": "Варшава",
        "name:th": "วอร์ซอ",
        "name:tk": "Warşawa",
        "name:tl": "Warsaw",
        "name:tpi": "Woso",
        "name:tr": "Varşova",
        "name:tt": "Варшава",
        "name:udm": "Варшава",
        "name:ug": "Warshawa",
        "name:uk": "Варшава",
        "name:ur": "وارسا",
        "name:uz": "Varshava",
        "name:vec": "Varsavia",
        "name:vep": "Varšav",
        "name:vi": "Warszawa",
        "name:war": "Warsovya",
        "name:wo": "Warsaw",
        "name:xmf": "ვარშავა",
        "name:yi": "ווארשע",
        "name:yo": "Warsaw",
        "name:yue": "華沙",
        "name:zh": "華沙",
        "name:zh-Hans": "华沙",
        "name:zh-Hant": "華沙",
        "name:zu": "IWarshawa",
        "official_name": "miasto stołeczne Warszawa",
        "place": "city",
        "population": "1744351",
        "rank": "10",
        "source:population": "http://stat.gov.pl/obszary-tematyczne/ludnosc/ludnosc/powierzchnia-i-ludnosc-w-przekroju-terytorialnym-w-2014-r-,7,11.html",
        "teryt:rm": "96",
        "teryt:simc": "0918123",
        "teryt:stan_na": "2009-01-01",
        "teryt:terc": "1465011",
        "teryt:updated_by": "teryt2osm combine.py v. 49",
        "website": "http://www.um.warszawa.pl",
        "wikidata": "Q270",
        "wikipedia": "pl:Warszawa"
      },
      "geometry": {
        "type": "Point",
        "coordinates": [
          21.0067249,
          52.2319581
        ]
      },
      "id": "node/428339515"
    },
    {
      "type": "Feature",
      "properties": {
        "@id": "node/1838666975",
        "capital": "4",
        "multi_postcode_place": "yes",
        "name": "Kraków",
        "name:ar": "كراكوف",
        "name:ast": "Cracovia",
        "name:be": "Кракаў",
        "name:ca": "Cracòvia",
        "name:cs": "Krakov",
        "name:de": "Krakau",
        "name:el": "Κρακοβία",
        "name:en": "Krakow",
        "name:eo": "Krakovo",
        "name:es": "Cracovia",
        "name:eu": "Krakovia",
        "name:fa": "کراکوف",
        "name:fi": "Krakova",
        "name:fr": "Cracovie",
        "name:hr": "Krakov",
        "name:hu": "Krakkó",
        "name:it": "Cracovia",
        "name:ja": "クラクフ",
        "name:la": "Cracovia",
        "name:lt": "Krokuva",
        "name:lv": "Krakova",
        "name:mk": "Краков",
        "name:mt": "Krakovja",
        "name:nl": "Krakau",
        "name:pl": "Kraków",
        "name:pt": "Cracóvia",
        "name:ro": "Cracovia",
        "name:ru": "Краков",
        "name:sk": "Krakov",
        "name:sl": "Krakov",
        "name:sr": "Краков",
        "name:szl": "Krakōw",
        "name:uk": "Краків",
        "name:zh-Hans": "克拉科夫",
        "name:zh-Hant": "克拉科夫",
        "place": "city",
        "population": "762508",
        "source:population": "http://stat.gov.pl/obszary-tematyczne/ludnosc/ludnosc/powierzchnia-i-ludnosc-w-przekroju-terytorialnym-w-2014-r-,7,11.html",
        "teryt:rm": "96",
        "teryt:simc": "0950463",
        "teryt:stan_na": "2009-01-01",
        "teryt:terc": "1261011",
        "teryt:updated_by": "teryt2osm combine.py v. 49",
        "website": "http://krakow.pl/",
        "wikidata": "Q31487",
        "wikipedia": "pl:Kraków"
      },
      "geometry": {
        "type": "Point",
        "coordinates": [
          19.9368564,
          50.0619474
        ]
      },
      "id": "node/1838666975"
    }
  ]
}