{
  "type": "FeatureCollection",
  "generator": "overpass-ide",
  "copyright": "The data included in this document is from www.openstreetmap.org. The data is made available under ODbL.",
  "timestamp": "2022-11-19T18:41:39Z",
  "features": [
    {
      "type": "Feature",
      "properties": {
        "@id": "node/1697487051",
        "heritage": "1",
        "heritage:operator": "whc",
        "name": "Toruń",
        "name:be": "Торунь",
        "name:de": "Thorn",
        "name:eo": "Toruno",
        "name:he": "טורון",
        "name:ja": "トルン",
        "name:la": "Thorunium",
        "name:lt": "Torunė",
        "name:mk": "Торуњ",
        "name:nds": "Thorn",
        "name:pl": "Toruń",
        "name:ru": "Торунь",
        "name:sk": "Toruň",
        "name:szl": "Torůń",
        "name:uk": "Торунь",
        "old_name": "Thorn",
        "place": "city",
        "population": "196935",
        "population:date": "2021-12-31",
        "postal_code": "87-100",
        "source:population": "http://stat.gov.pl/obszary-tematyczne/ludnosc/ludnosc/powierzchnia-i-ludnosc-w-przekroju-terytorialnym-w-2014-r-,7,11.html",
        "teryt:simc": "0982724",
        "teryt:terc": "0463011",
        "wikidata": "Q47554",
        "wikipedia": "pl:Toruń"
      },
      "geometry": {
        "type": "Point",
        "coordinates": [
          18.6048094,
          53.0102721
        ]
      },
      "id": "node/1697487051"
    }
  ]
}